NORAD_CAT_ID,OBJECT_NAME,OBJECT_TYPE,EPOCH,MEAN_MOTION,ECCENTRICITY,INCLINATION,RA_OF_ASC_NODE,ARG_OF_PERICENTER,MEAN_ANOMALY,BSTAR,MEAN_MOTION_DOT,MEAN_MOTION_DDOT,TLE_LINE0,TLE_LINE1,TLE_LINE2,SEMIMAJOR_AXIS,PERIOD,APOGEE,PERIGEE,DECAYED
54098.0,STARLINK-5217,PAYLOAD,2024-07-16 06:14:22,15.08834221,0.0001519,53.2175,154.381,82.9624,277.1541,9.0436e-07,-2.74e-06,0.0,0 STARLINK-5217,1 54098U 22136AZ  24198.25997956 -.00000274  00000-0  90436-6 0  9998,2 54098  53.2175 154.3810 0001519  82.9624 277.1541 15.08834221 96185,6917.898,95.438,540.814,538.712,0.0
54098.0,STARLINK-5217,PAYLOAD,2024-07-17 04:29:46,15.08831161,0.0001421,53.2172,150.2185,84.2183,275.8971,1.5923e-05,-3.5e-07,0.0,0 STARLINK-5217,1 54098U 22136AZ  24199.18734277 -.00000035  00000-0  15923-4 0  9997,2 54098  53.2172 150.2185 0001421  84.2183 275.8971 15.08831161 96798,6917.907,95.438,540.755,538.789,0.0
54098.0,STARLINK-5217,PAYLOAD,2024-07-17 14:02:04,15.08849787,0.0001436,53.2175,148.4367,86.6772,273.4384,0.00010836,1.437e-05,0.0,0 STARLINK-5217,1 54098U 22136AZ  24199.58477021  .00001437  00000-0  10836-3 0  9995,2 54098  53.2175 148.4367 0001436  86.6772 273.4384 15.08849787 96388,6917.85,95.437,540.709,538.722,0.0
54098.0,STARLINK-5217,PAYLOAD,2024-07-18 02:45:09,15.08840639,0.0001432,53.2166,146.0527,106.2444,253.8706,6.1964e-05,6.98e-06,0.0,0 STARLINK-5217,1 54098U 22136AZ  24200.11469793  .00000698  00000-0  61964-4 0  9991,2 54098  53.2166 146.0527 0001432 106.2444 253.8706 15.08840639 96939,6917.878,95.438,540.734,538.753,0.0
54098.0,STARLINK-5217,PAYLOAD,2024-07-18 13:52:51,15.08849701,0.0001716,53.2176,143.9704,102.3909,257.7275,0.00019994,2.896e-05,0.0,0 STARLINK-5217,1 54098U 22136AZ  24200.57837371  .00002896  00000-0  19994-3 0  9999,2 54098  53.2176 143.9704 0001716 102.3909 257.7275 15.08849701 96530,6917.851,95.437,540.903,538.529,0.0
54098.0,STARLINK-5217,PAYLOAD,2024-07-19 02:35:56,15.08844006,0.0001761,53.2179,141.5906,124.3133,235.8026,0.00012825,1.754e-05,0.0,0 STARLINK-5217,1 54098U 22136AZ  24201.10829544  .00001754  00000-0  12825-3 0  9990,2 54098  53.2179 141.5906 0001761 124.3133 235.8026 15.08844006 97089,6917.868,95.437,540.951,538.515,0.0
54098.0,STARLINK-5217,PAYLOAD,2024-07-19 05:46:43,15.08842219,0.0001701,53.2177,140.9962,107.1738,252.944,0.00011273,1.507e-05,0.0,0 STARLINK-5217,1 54098U 22136AZ  24201.24077688  .00001507  00000-0  11273-3 0  9991,2 54098  53.2177 140.9962 0001701 107.1738 252.9440 15.08842219 96630,6917.874,95.437,540.915,538.562,0.0
54098.0,STARLINK-5217,PAYLOAD,2024-07-19 20:05:11,15.08842447,0.0001783,53.2175,138.3177,116.5881,243.5294,0.0001202,1.626e-05,0.0,0 STARLINK-5217,1 54098U 22136AZ  24201.83693623  .00001626  00000-0  12020-3 0  9992,2 54098  53.2175 138.3177 0001783 116.5881 243.5294 15.08842447 96726,6917.873,95.437,540.971,538.504,0.0
54098.0,STARLINK-5217,PAYLOAD,2024-07-20 02:26:44,15.088393,0.000168,53.218,137.1314,105.6389,254.4788,8.3924e-05,1.048e-05,0.0,0 STARLINK-5217,1 54098U 22136AZ  24202.10189880  .00001048  00000-0  83924-4 0  9998,2 54098  53.2180 137.1314 0001680 105.6389 254.4788 15.08839300 97230,6917.883,95.438,540.91,538.585,0.0
54098.0,STARLINK-5217,PAYLOAD,2024-07-21 02:17:31,15.08833906,0.0001419,53.2172,132.6785,92.1224,267.993,0.00011685,1.572e-05,0.0,0 STARLINK-5217,1 54098U 22136AZ  24203.09550388  .00001572  00000-0  11685-3 0  9998,2 54098  53.2172 132.6785 0001419  92.1224 267.9930 15.08833906 97381,6917.899,95.438,540.746,538.782,0.0
54098.0,STARLINK-5217,PAYLOAD,2024-07-21 05:28:17,15.08842273,0.0001383,53.2161,132.0816,99.1034,261.0115,6.9137e-05,8.13e-06,0.0,0 STARLINK-5217,1 54098U 22136AZ  24203.22797896  .00000813  00000-0  69137-4 0  9993,2 54098  53.2161 132.0816 0001383  99.1034 261.0115 15.08842273 97404,6917.873,95.437,540.695,538.782,0.0
54098.0,STARLINK-5217,PAYLOAD,2024-07-22 00:32:55,15.08832943,0.0001275,53.2162,128.51,94.1408,265.973,7.6114e-05,9.23e-06,0.0,0 STARLINK-5217,1 54098U 22136AZ  24204.02286740  .00000923  00000-0  76114-4 0  9998,2 54098  53.2162 128.5100 0001275  94.1408 265.9730 15.08832943 97523,6917.902,95.438,540.649,538.885,0.0
54098.0,STARLINK-5217,PAYLOAD,2024-07-22 22:48:19,15.08842311,0.0001208,53.2164,124.346,82.8213,277.2916,0.00012887,1.764e-05,0.0,0 STARLINK-5217,1 54098U 22136AZ  24204.95022216  .00001764  00000-0  12887-3 0  9996,2 54098  53.2164 124.3460 0001208  82.8213 277.2916 15.08842311 97197,6917.873,95.437,540.574,538.903,0.0
54098.0,STARLINK-5217,PAYLOAD,2024-07-23 03:34:28,15.08850716,0.0001243,53.2163,123.4539,82.9539,277.1594,0.00020789,3.023e-05,0.0,0 STARLINK-5217,1 54098U 22136AZ  24205.14893601  .00003023  00000-0  20789-3 0  9992,2 54098  53.2163 123.4539 0001243  82.9539 277.1594 15.08850716 97698,6917.848,95.437,540.573,538.853,0.0
54098.0,STARLINK-5217,PAYLOAD,2024-07-23 11:31:23,15.08853589,0.0001262,53.2158,121.9675,81.6356,278.4779,0.00026077,3.866e-05,0.0,0 STARLINK-5217,1 54098U 22136AZ  24205.48013493  .00003866  00000-0  26077-3 0  9993,2 54098  53.2158 121.9675 0001262  81.6356 278.4779 15.08853589 97274,6917.839,95.437,540.577,538.831,0.0
54098.0,STARLINK-5217,PAYLOAD,2024-07-23 22:39:07,15.08818689,0.0001171,53.2162,119.8851,82.3063,277.8062,-0.00021791,-3.752e-05,0.0,0 STARLINK-5217,1 54098U 22136AZ  24205.94383584 -.00003752  00000-0 -21791-3 0  9999,2 54098  53.2162 119.8851 0001171  82.3063 277.8062 15.08818689 97341,6917.946,95.439,540.621,539.0,0.0
54098.0,STARLINK-5217,PAYLOAD,2024-07-24 03:25:16,15.08828289,0.0001457,53.2173,118.995,90.1174,269.9985,-7.5618e-05,-1.491e-05,0.0,0 STARLINK-5217,1 54098U 22136AZ  24206.14255362 -.00001491  00000-0 -75618-4 0  9990,2 54098  53.2173 118.9950 0001457  90.1174 269.9985 15.08828289 97848,6917.916,95.438,540.789,538.773,0.0
54098.0,STARLINK-5217,PAYLOAD,2024-07-24 17:43:44,15.08830328,0.0001188,53.2151,116.317,130.1527,229.9569,0.00028628,4.27e-05,0.0,0 STARLINK-5217,1 54098U 22136AZ  24206.73871177  .00004270  00000-0  28628-3 0  9997,2 54098  53.2151 116.3170 0001188 130.1527 229.9569 15.08830328 97939,6917.91,95.438,540.597,538.953,0.0
54098.0,STARLINK-5217,PAYLOAD,2024-07-24 22:29:53,15.08839132,0.0001145,53.2158,115.4287,106.5316,253.5802,0.00043334,6.615e-05,0.0,0 STARLINK-5217,1 54098U 22136AZ  24206.93743042  .00006615  00000-0  43334-3 0  9994,2 54098  53.2158 115.4287 0001145 106.5316 253.5802 15.08839132 97497,6917.883,95.438,540.54,538.956,0.0
54098.0,STARLINK-5217,PAYLOAD,2024-07-25 00:05:17,15.088429,0.0001211,53.2154,115.1314,101.3189,258.7939,0.00054369,8.376e-05,0.0,0 STARLINK-5217,1 54098U 22136AZ  24207.00367002  .00008376  00000-0  54369-3 0  9997,2 54098  53.2154 115.1314 0001211 101.3189 258.7939 15.08842900 97974,6917.872,95.437,540.574,538.899,0.0
54098.0,STARLINK-5217,PAYLOAD,2024-07-25 22:20:40,15.08848623,0.0001293,53.2152,110.963,102.7938,257.3198,0.00032548,4.897e-05,0.0,0 STARLINK-5217,1 54098U 22136AZ  24207.93102647  .00004897  00000-0  32548-3 0  9990,2 54098  53.2152 110.9630 0001293 102.7938 257.3198 15.08848623 97647,6917.854,95.437,540.614,538.825,0.0
54098.0,STARLINK-5217,PAYLOAD,2024-07-26 03:06:50,15.08845287,0.0001173,53.2149,110.0755,103.3862,256.7261,0.00023255,3.416e-05,0.0,0 STARLINK-5217,1 54098U 22136AZ  24208.12974728  .00003416  00000-0  23255-3 0  9990,2 54098  53.2149 110.0755 0001173 103.3862 256.7261 15.08845287 98145,6917.864,95.437,540.541,538.918,0.0
54098.0,STARLINK-5217,PAYLOAD,2024-07-26 17:25:17,15.08852054,0.0001638,53.2173,107.3997,102.8264,257.2912,0.00016995,2.419e-05,0.0,0 STARLINK-5217,1 54098U 22136AZ  24208.72590230  .00002419  00000-0  16995-3 0  9993,2 54098  53.2173 107.3997 0001638 102.8264 257.2912 15.08852054 97761,6917.844,95.437,540.842,538.575,0.0
54098.0,STARLINK-5217,PAYLOAD,2024-07-27 22:02:14,15.08835944,0.0001424,53.2165,102.048,98.9813,261.1341,8.056e-05,9.94e-06,0.0,0 STARLINK-5217,1 54098U 22136AZ  24209.91822839  .00000994  00000-0  80560-4 0  9994,2 54098  53.2165 102.0480 0001424  98.9813 261.1341 15.08835944 97948,6917.893,95.438,540.743,538.773,0.0
54098.0,STARLINK-5217,PAYLOAD,2024-07-27 23:37:38,15.08830553,0.0001335,53.2171,101.752,87.8087,272.3058,-2.9034e-05,-7.5e-06,0.0,0 STARLINK-5217,1 54098U 22136AZ  24209.98447132 -.00000750  00000-0 -29034-4 0  9991,2 54098  53.2171 101.7520 0001335  87.8087 272.3058 15.08830553 98421,6917.909,95.438,540.698,538.851,0.0
54098.0,STARLINK-5217,PAYLOAD,2024-07-28 21:53:02,15.08832275,0.0001183,53.2167,97.5893,83.3521,276.7606,5.5823e-05,6.01e-06,0.0,0 STARLINK-5217,1 54098U 22136AZ  24210.91183571  .00000601  00000-0  55823-4 0  9998,2 54098  53.2167  97.5893 0001183  83.3521 276.7606 15.08832275 98099,6917.904,95.438,540.587,538.951,0.0
54098.0,STARLINK-5217,PAYLOAD,2024-07-29 09:00:43,15.08839321,0.0001384,53.2179,95.507,101.9378,258.177,0.00023405,3.439e-05,0.0,0 STARLINK-5217,1 54098U 22136AZ  24211.37550516  .00003439  00000-0  23405-3 0  9998,2 54098  53.2179  95.5070 0001384 101.9378 258.1770 15.08839321 98632,6917.882,95.438,540.705,538.79,0.0
54098.0,STARLINK-5217,PAYLOAD,2024-07-29 21:43:50,15.08828537,0.0001426,53.2178,93.1281,99.1404,260.975,0.00013223,1.816e-05,0.0,0 STARLINK-5217,1 54098U 22136AZ  24211.90544064  .00001816  00000-0  13223-3 0  9992,2 54098  53.2178  93.1281 0001426  99.1404 260.9750 15.08828537 98719,6917.915,95.438,540.767,538.794,0.0
54098.0,STARLINK-5217,PAYLOAD,2024-07-30 08:51:31,15.08846036,0.0001406,53.2183,91.0468,98.3773,261.7379,0.00025986,3.851e-05,0.0,0 STARLINK-5217,1 54098U 22136AZ  24212.36911029  .00003851  00000-0  25986-3 0  9992,2 54098  53.2183  91.0468 0001406  98.3773 261.7379 15.08846036 98784,6917.862,95.437,540.7,538.754,0.0
54098.0,STARLINK-5217,PAYLOAD,2024-07-30 23:09:59,15.08839554,0.0001435,53.2178,88.3715,101.278,258.8373,4.4202e-05,4.16e-06,0.0,0 STARLINK-5217,1 54098U 22136AZ  24212.96527534  .00000416  00000-0  44202-4 0  9999,2 54098  53.2178  88.3715 0001435 101.2780 258.8373 15.08839554 98403,6917.882,95.438,540.739,538.754,0.0
